,NORAD_CAT_ID,EPOCH,MEAN_MOTION,ECCENTRICITY,INCLINATION,RA_OF_ASC_NODE,ARG_OF_PERICENTER,MEAN_ANOMALY,SEMIMAJOR_AXIS,PERIOD,APOGEE,PERIGEE
10941,10628,2019-10-31 18:14:44,15.17316101,0.0038826,97.3191,6.571000000000001,172.4319,303.2456,6892.093000000001,94.904,540.717,487.19800000000004
10942,10628,2019-10-31 22:57:27,15.17315254,0.0038747,97.3189,6.76,171.922,295.4433,6892.095,94.904,540.665,487.255
10943,10628,2019-11-01 01:54:55,15.17315339,0.0038740000000000003,97.3189,6.8791,171.4844,248.639,6892.095,94.904,540.66,487.26
10944,10628,2019-11-01 09:59:10,15.17315324,0.0038781999999999996,97.3187,7.2041,170.3065,285.5764,6892.095,94.904,540.689,487.231
10945,10628,2019-11-01 17:58:49,15.17315278,0.0038841,97.3186,7.5255,169.1215,305.0604,6892.095,94.904,540.73,487.19
10946,10628,2019-11-01 22:46:01,15.17315132,0.0038902,97.3187,7.7182,168.4214,314.4481,6892.095,94.904,540.7719999999999,487.149
10947,10628,2019-11-02 01:46:43,15.17315374,0.0038898,97.3189,7.8398,167.9518,279.9342,6892.095,94.904,540.769,487.151
10948,10628,2019-11-02 09:52:19,15.173156400000002,0.0038936,97.3188,8.1657,166.7565,322.0083,6892.094,94.904,540.794,487.124
10949,10628,2019-11-02 17:52:28,15.17316105,0.0038981000000000003,97.3187,8.4876,165.5466,343.3566,6892.093000000001,94.904,540.8240000000001,487.091
10950,10628,2019-11-02 20:46:47,15.17316079,0.0038989000000000003,97.3187,8.6045,165.1297,284.5997,6892.093000000001,94.904,540.8290000000001,487.086
10951,10628,2019-11-03 02:50:57,15.17316799,0.0038988,97.3188,8.849,164.3085,225.946,6892.09,94.904,540.826,487.085
10952,10628,2019-11-03 09:36:50,15.17317301,0.0039008000000000003,97.3187,9.1213,163.3254,325.5958,6892.089,94.904,540.839,487.069
10953,10628,2019-11-03 17:39:09,15.17318007,0.0039287,97.3187,9.4451,162.0435,355.2909,6892.0869999999995,94.904,541.029,486.875
10954,10628,2019-11-03 21:56:58,15.17318304,0.0039274,97.3187,9.618,161.4354,253.204,6892.085999999999,94.904,541.019,486.88300000000004
10955,10628,2019-11-04 02:42:27,15.17319244,0.0039264,97.3186,9.8095,160.7583,256.1563,6892.0830000000005,94.904,541.009,486.88699999999994
10956,10628,2019-11-04 10:37:16,15.17320292,0.0039241,97.3186,10.1279,159.6665,257.1896,6892.08,94.904,540.99,486.9
10957,10628,2019-11-04 17:12:56,15.17321024,0.003937400000000001,97.3187,10.3938,158.6613,318.1352,6892.078,94.904,541.0790000000001,486.806
10958,10628,2019-11-04 21:50:10,15.17321151,0.0039363,97.3188,10.5799,157.9937,289.732,6892.076999999999,94.904,541.072,486.81300000000005
10959,10628,2019-11-05 02:27:15,15.17321914,0.0039313,97.3188,10.7656,157.3103,260.8628,6892.075,94.904,541.035,486.845
10960,10628,2019-11-05 10:57:49,15.17322902,0.0039341,97.3188,11.1084,156.1075,37.5717,6892.071999999999,94.90299999999999,541.0509999999999,486.82300000000004
10961,10628,2019-11-05 18:33:24,15.17323577,0.0039384,97.3188,11.4141,154.9997,325.6973,6892.07,94.90299999999999,541.0790000000001,486.791
10962,10628,2019-11-05 21:26:05,15.17323537,0.0039418,97.3188,11.5299,154.5586,260.7533,6892.07,94.90299999999999,541.102,486.76800000000003
10963,10628,2019-11-06 02:11:59,15.17324023,0.0039391999999999995,97.319,11.7219,153.8101,265.3682,6892.069,94.90299999999999,541.0830000000001,486.784
10964,10628,2019-11-06 10:05:50,15.17324751,0.0039540999999999995,97.3191,12.0401,152.735,262.7058,6892.066,94.90299999999999,541.183,486.67900000000003
10965,10628,2019-11-06 11:59:01,15.17324932,0.0039565,97.3191,12.116,152.4775,332.0347,6892.066,94.90299999999999,541.1990000000001,486.662
10966,10628,2019-11-06 18:16:35,15.17325288,0.003954999999999999,97.3189,12.369000000000002,151.5997,324.2616,6892.065,94.90299999999999,541.188,486.67199999999997
10967,10628,2019-11-06 21:19:01,15.17325111,0.0039613,97.319,12.4915,151.1899,296.2451,6892.065,94.90299999999999,541.232,486.629
10968,10628,2019-11-07 01:57:56,15.17325389,0.0039623,97.3191,12.6789,150.4978,274.2855,6892.064,94.90299999999999,541.238,486.621
10969,10628,2019-11-07 10:25:27,15.17325728,0.0039613,97.319,13.0189,149.3704,39.3043,6892.063,94.90299999999999,541.23,486.62699999999995
10970,10628,2019-11-07 14:55:55,15.17326026,0.0039613,97.3189,13.2003,148.715,345.3167,6892.062,94.90299999999999,541.229,486.626
10971,10628,2019-11-07 18:02:23,15.17326161,0.0039609,97.3188,13.3253,148.2689,332.6438,6892.062,94.90299999999999,541.226,486.62800000000004
12239,11778,2019-10-09 03:02:19,15.08711328,0.0010305,31.0021,271.6006,170.7963,189.2865,6918.273,95.445,547.2669999999999,533.009
12240,11778,2019-10-09 07:48:08,15.08711545,0.0010301,31.0025,270.323,172.7486,187.3302,6918.273,95.445,547.264,533.011
12241,11778,2019-10-10 04:26:37,15.08723521,0.0010280999999999999,31.0026,264.7838,181.2999,178.7613,6918.236,95.444,547.214,532.988
12242,11778,2019-10-10 06:01:53,15.08725205,0.0010293,31.0025,264.3576,181.9516,178.1082,6918.231,95.444,547.217,532.975
12243,11778,2019-10-11 07:26:10,15.08739964,0.0010318,31.0026,257.5399,192.489,167.5493,6918.186,95.443,547.189,532.9119999999999
12244,11778,2019-10-12 05:39:55,15.08750323,0.0010288,31.0027,251.5749,201.5079,158.5127,6918.154,95.443,547.136,532.9019999999999
12245,11778,2019-10-13 03:53:39,15.08760522,0.0010285000000000001,31.0026,245.6097,210.7899,149.2136,6918.1230000000005,95.44200000000001,547.1030000000001,532.873
12246,11778,2019-10-13 05:28:54,15.08761224,0.0010285000000000001,31.0026,245.1836,211.4406,148.5618,6918.121,95.44200000000001,547.101,532.87
12247,11778,2019-10-13 22:56:50,15.08771189,0.0010269,31.0024,240.4966,218.5977,141.3927,6918.09,95.441,547.059,532.851
12248,11778,2019-10-14 05:17:54,15.08777612,0.0010277,31.0024,238.7921,221.1432,138.8431,6918.071,95.441,547.045,532.826
12249,11778,2019-10-15 05:06:52,15.08787527,0.0010265,31.0023,232.4004,230.8872,129.0854,6918.04,95.44,547.007,532.804
12250,11778,2019-10-16 04:55:50,15.08801258,0.0010248,31.0021,226.0086,240.6773,119.2841,6917.9980000000005,95.44,546.953,532.774
12251,11778,2019-10-16 22:23:44,15.088087300000002,0.0010231,31.0021,221.3213,247.90599999999998,112.0491,6917.975,95.439,546.918,532.763
12252,11778,2019-10-17 03:09:31,15.08811108,0.0010191,31.0021,220.0432,249.8874,110.0667,6917.968000000001,95.439,546.883,532.783
12253,11778,2019-10-18 02:58:28,15.08820308,0.0010164999999999998,31.0021,213.65099999999998,259.3445,100.6049,6917.94,95.43799999999999,546.837,532.773
12254,11778,2019-10-19 02:47:24,15.08830147,0.0010121000000000002,31.0022,207.2591,269.185,90.7628,6917.91,95.43799999999999,546.7769999999999,532.773
12255,11778,2019-10-20 02:36:19,15.08839028,0.001007,31.0022,200.8671,278.9968,80.953,6917.883000000001,95.43700000000001,546.714,532.7819999999999
12256,11778,2019-10-21 00:49:59,15.08846858,0.0010018,31.0022,194.9015,288.1314,71.8233,6917.859,95.43700000000001,546.654,532.794
12257,11778,2019-10-21 19:53:07,15.08851184,0.0009977,31.0023,189.7876,295.9342,64.0268,6917.846,95.436,546.613,532.809
12258,11778,2019-10-22 19:42:02,15.088622599999999,0.0009948000000000001,31.0023,183.3958,305.8803,54.0911,6917.812,95.436,546.559,532.795
12259,11778,2019-10-23 00:27:48,15.08863502,0.0009894,31.0022,182.1178,307.9247,52.0497,6917.808000000001,95.436,546.518,532.8290000000001
12260,11778,2019-10-23 21:06:11,15.088722500000001,0.0009826000000000001,31.002,176.5779,316.48,43.5062,6917.781,95.435,546.444,532.849
12261,11778,2019-10-23 22:41:27,15.08872935,0.0009829,31.002,176.1518,317.1758,42.8114,6917.779,95.435,546.444,532.845
12262,11778,2019-10-24 20:55:05,15.08882392,0.0009737,31.0019,170.1856,326.3855,33.6164,6917.75,95.434,546.351,532.88
12263,11778,2019-10-25 00:05:36,15.08883639,0.0009746,31.002,169.3335,327.7538,32.2503,6917.746999999999,95.434,546.354,532.869
12264,11778,2019-10-25 00:05:36,15.08883639,0.0009746,31.002,169.3335,327.7538,32.2503,6917.746999999999,95.434,546.354,532.869
12265,11778,2019-11-03 12:42:32,15.08959731,0.0009235,31.0022,107.965,64.8045,295.355,6917.514,95.429,545.7669999999999,532.991
12266,11778,2019-11-04 12:31:21,15.08970182,0.0009267999999999999,31.0015,101.5713,74.7046,285.4615,6917.482,95.429,545.758,532.936
12267,11778,2019-11-05 12:20:08,15.08983104,0.0009234,31.0017,95.1787,84.0343,276.1347,6917.443,95.428,545.695,532.92
12268,11778,2019-11-05 17:05:54,15.08986827,0.0009166,31.0023,93.9011,85.7987,274.3699,6917.431,95.428,545.637,532.956
12269,11778,2019-11-06 12:08:55,15.0899821,0.0009138999999999999,31.0023,88.7863,94.7115,265.4566,6917.396,95.427,545.5830000000001,532.94
12270,11778,2019-11-07 11:57:40,15.09012184,0.0009076,31.0026,82.3935,104.7787,255.3857,6917.354,95.426,545.497,532.94
13948,13993,2019-10-09 19:10:16,15.06803681,0.0019564,97.5302,313.3763,65.6879,349.4867,6924.111,95.566,559.5219999999999,532.43
13949,13993,2019-10-09 22:26:11,15.06805068,0.0019542,97.5302,313.5094,65.2271,7.5093,6924.107,95.566,559.503,532.441
13950,13993,2019-10-10 13:09:21,15.06808201,0.0019449,97.5298,314.1093,63.2315,94.3108,6924.097,95.566,559.429,532.496
13951,13993,2019-10-10 19:05:12,15.06809794,0.0019422,97.5298,314.3509,62.4083,354.7921,6924.092,95.566,559.405,532.509
13952,13993,2019-10-11 01:26:20,15.06812902,0.0019390999999999998,97.5298,314.6097,61.542,350.464,6924.0830000000005,95.565,559.374,532.521
13953,13993,2019-10-11 14:29:03,15.06816849,0.0019347000000000001,97.5297,315.1412,59.808,58.8775,6924.071,95.565,559.332,532.54
13954,13993,2019-10-11 18:58:26,15.06818181,0.0019334,97.5297,315.3242,59.1861,353.6595,6924.066999999999,95.565,559.319,532.545
13955,13993,2019-10-12 09:38:17,15.06822112,0.0019288,97.5298,315.9216,57.2012,67.9862,6924.055,95.565,559.275,532.565
13956,13993,2019-10-12 14:23:05,15.06823684,0.0019275,97.5298,316.115,56.5539,60.8072,6924.05,95.565,559.261,532.569
13957,13993,2019-10-12 22:09:28,15.06826256,0.0019256,97.5299,316.4317,55.5006,17.6348,6924.0419999999995,95.565,559.24,532.5740000000001
13958,13993,2019-10-13 14:17:30,15.06831351,0.0019222999999999998,97.5301,317.0891,53.376000000000005,64.1529,6924.026,95.564,559.201,532.581
